COSMOS 2361 [-]         
1 25590U 98076A   22046.80981947  .00000066  00000+0  54870-4 0  9990
2 25590  82.9342 296.0725 0031315 184.3328 243.7312 13.73010159159540
COSMOS 2378 [-]         
1 26818U 01023A   22047.51334750  .00000044  00000+0  30790-4 0  9994
2 26818  82.9309 313.8192 0033882 129.5338 230.8820 13.73963699 37706
COSMOS 2389 [-]         
1 27436U 02026A   22047.36709981  .00000054  00000+0  40338-4 0  9990
2 27436  82.9474 259.5717 0046318 355.2011 178.4331 13.74966694989786
COSMOS 2398 [-]         
1 27818U 03023A   22047.51977968  .00000063  00000+0  52190-4 0  9990
2 27818  82.9458 220.6606 0032244  29.6577 330.6400 13.72202331936803
COSMOS 2407 [+]         
1 28380U 04028A   22046.86417611  .00000052  00000+0  38081-4 0  9993
2 28380  82.9631 166.4406 0039360 359.5517   0.5599 13.76103949882442
COSMOS 2414 [+]         
1 28521U 05002A   22047.40117834  .00000051  00000+0  29143-4 0  9996
2 28521  82.9524 159.7555 0040706 157.0891 203.2094 13.87645593864767
COSMOS 2429 [-]         
1 32052U 07038A   22046.91926175  .00000054  00000+0  41096-4 0  9996
2 32052  82.9801 291.8515 0037979 335.4321  24.5025 13.74952600724209
COSMOS 2454 [-]         
1 35635U 09039A   22047.40980001  .00000045  00000+0  23718-4 0  9993
2 35635  82.9588 146.3281 0020712 103.2408 257.1063 13.89675747637882
COSMOS 2463 [+]         
1 36519U 10017A   22046.89126771  .00000033  00000+0  20324-4 0  9998
2 36519  82.9641 332.0993 0035652 198.2180 226.5036 13.71466638591032
